[{"OBJECT_NAME":"STARLINK-4539","OBJECT_ID":"2022-097AM","EPOCH":"2026-03-09T08:18:35.998272","MEAN_MOTION":15.08855096,"ECCENTRICITY":0.00017821,"INCLINATION":53.2163,"RA_OF_ASC_NODE":115.6767,"ARG_OF_PERICENTER":53.3894,"MEAN_ANOMALY":306.7262,"EPHEMERIS_TYPE":0,"CLASSIFICATION_TYPE":"U","NORAD_CAT_ID":53423,"ELEMENT_SET_NO":999,"REV_AT_EPOCH":19857,"BSTAR":0.00013749711,"MEAN_MOTION_DOT":1.902e-5,"MEAN_MOTION_DDOT":0},{"OBJECT_NAME":"COSMOS 374 DEB","OBJECT_ID":"1970-089D","EPOCH":"2026-03-09T23:15:59.694624","MEAN_MOTION":14.41356541,"ECCENTRICITY":0.03141885,"INCLINATION":62.9412,"RA_OF_ASC_NODE":312.2031,"ARG_OF_PERICENTER":321.7041,"MEAN_ANOMALY":36.2082,"EPHEMERIS_TYPE":0,"CLASSIFICATION_TYPE":"U","NORAD_CAT_ID":4617,"ELEMENT_SET_NO":999,"REV_AT_EPOCH":75367,"BSTAR":0.00087541889,"MEAN_MOTION_DOT":4.985e-5,"MEAN_MOTION_DDOT":0}]
